[
    {
    "OBJECT_NAME": "YAOGAN-43 02A",
    "OBJECT_ID": "2024-156A",
    "EPOCH": "2024-09-30T02:38:50.300160",
    "MEAN_MOTION": 15.23119082,
    "ECCENTRICITY": 0.0009286,
    "INCLINATION": 34.998,
    "RA_OF_ASC_NODE": 169.2862,
    "ARG_OF_PERICENTER": 285.5409,
    "MEAN_ANOMALY": 218.8313,
    "EPHEMERIS_TYPE": 0,
    "CLASSIFICATION_TYPE": "U",
    "NORAD_CAT_ID": 60945,
    "ELEMENT_SET_NO": 999,
    "REV_AT_EPOCH": 413,
    "BSTAR": 0.0049636,
    "MEAN_MOTION_DOT": 0.00122097,
    "MEAN_MOTION_DDOT": 0
    },
    {
    "OBJECT_NAME": "YAOGAN-43 02B",
    "OBJECT_ID": "2024-156B",
    "EPOCH": "2024-09-30T05:18:11.351808",
    "MEAN_MOTION": 15.2308984,
    "ECCENTRICITY": 0.0003707,
    "INCLINATION": 34.9951,
    "RA_OF_ASC_NODE": 168.6701,
    "ARG_OF_PERICENTER": 264.5143,
    "MEAN_ANOMALY": 95.5149,
    "EPHEMERIS_TYPE": 0,
    "CLASSIFICATION_TYPE": "U",
    "NORAD_CAT_ID": 60946,
    "ELEMENT_SET_NO": 999,
    "REV_AT_EPOCH": 410,
    "BSTAR": 0.0017451,
    "MEAN_MOTION_DOT": 0.00042364,
    "MEAN_MOTION_DDOT": 0
    },
    {
    "OBJECT_NAME": "YAOGAN-43 02C",
    "OBJECT_ID": "2024-156C",
    "EPOCH": "2024-09-29T19:47:38.793984",
    "MEAN_MOTION": 15.23650742,
    "ECCENTRICITY": 0.000341,
    "INCLINATION": 34.9983,
    "RA_OF_ASC_NODE": 171.1251,
    "ARG_OF_PERICENTER": 206.7122,
    "MEAN_ANOMALY": 153.3418,
    "EPHEMERIS_TYPE": 0,
    "CLASSIFICATION_TYPE": "U",
    "NORAD_CAT_ID": 60947,
    "ELEMENT_SET_NO": 999,
    "REV_AT_EPOCH": 404,
    "BSTAR": 0.00052487,
    "MEAN_MOTION_DOT": 0.00012878,
    "MEAN_MOTION_DDOT": 0
    },
    {
    "OBJECT_NAME": "YAOGAN-43 02D",
    "OBJECT_ID": "2024-156D",
    "EPOCH": "2024-09-30T02:53:49.317216",
    "MEAN_MOTION": 15.23339864,
    "ECCENTRICITY": 0.0002814,
    "INCLINATION": 34.9962,
    "RA_OF_ASC_NODE": 169.3594,
    "ARG_OF_PERICENTER": 171.5964,
    "MEAN_ANOMALY": 335.2319,
    "EPHEMERIS_TYPE": 0,
    "CLASSIFICATION_TYPE": "U",
    "NORAD_CAT_ID": 60948,
    "ELEMENT_SET_NO": 999,
    "REV_AT_EPOCH": 408,
    "BSTAR": -0.0053795,
    "MEAN_MOTION_DOT": -0.00128682,
    "MEAN_MOTION_DDOT": 0
    },
    {
    "OBJECT_NAME": "YAOGAN-43 02E",
    "OBJECT_ID": "2024-156E",
    "EPOCH": "2024-09-30T05:28:00.578208",
    "MEAN_MOTION": 15.22972317,
    "ECCENTRICITY": 0.0008702,
    "INCLINATION": 34.996,
    "RA_OF_ASC_NODE": 168.7271,
    "ARG_OF_PERICENTER": 160.3866,
    "MEAN_ANOMALY": 199.7184,
    "EPHEMERIS_TYPE": 0,
    "CLASSIFICATION_TYPE": "U",
    "NORAD_CAT_ID": 60949,
    "ELEMENT_SET_NO": 999,
    "REV_AT_EPOCH": 410,
    "BSTAR": 0.0022577,
    "MEAN_MOTION_DOT": 0.00054765,
    "MEAN_MOTION_DDOT": 0
    },
    {
    "OBJECT_NAME": "YAOGAN-43 02F",
    "OBJECT_ID": "2024-156F",
    "EPOCH": "2024-09-29T02:33:09.522144",
    "MEAN_MOTION": 15.24322923,
    "ECCENTRICITY": 0.0002446,
    "INCLINATION": 34.9933,
    "RA_OF_ASC_NODE": 175.6744,
    "ARG_OF_PERICENTER": 170.3301,
    "MEAN_ANOMALY": 189.7461,
    "EPHEMERIS_TYPE": 0,
    "CLASSIFICATION_TYPE": "U",
    "NORAD_CAT_ID": 60950,
    "ELEMENT_SET_NO": 999,
    "REV_AT_EPOCH": 393,
    "BSTAR": 0.0011098,
    "MEAN_MOTION_DOT": 0.0002788,
    "MEAN_MOTION_DDOT": 0
    },
    {
    "OBJECT_NAME": "CZ-4B R/B",
    "OBJECT_ID": "2024-156G",
    "EPOCH": "2024-09-30T01:38:59.066880",
    "MEAN_MOTION": 15.49220482,
    "ECCENTRICITY": 0.008799,
    "INCLINATION": 35.0018,
    "RA_OF_ASC_NODE": 163.4691,
    "ARG_OF_PERICENTER": 251.4709,
    "MEAN_ANOMALY": 107.6437,
    "EPHEMERIS_TYPE": 0,
    "CLASSIFICATION_TYPE": "U",
    "NORAD_CAT_ID": 60951,
    "ELEMENT_SET_NO": 999,
    "REV_AT_EPOCH": 418,
    "BSTAR": 0.0011575,
    "MEAN_MOTION_DOT": 0.00077036,
    "MEAN_MOTION_DDOT": 0
    },
    {
    "OBJECT_NAME": "BINAR-4",
    "OBJECT_ID": "1998-067WS",
    "EPOCH": "2024-09-29T16:23:37.095072",
    "MEAN_MOTION": 15.60969428,
    "ECCENTRICITY": 0.0004302,
    "INCLINATION": 51.6337,
    "RA_OF_ASC_NODE": 156.5017,
    "ARG_OF_PERICENTER": 76.5643,
    "MEAN_ANOMALY": 283.5829,
    "EPHEMERIS_TYPE": 0,
    "CLASSIFICATION_TYPE": "U",
    "NORAD_CAT_ID": 60952,
    "ELEMENT_SET_NO": 999,
    "REV_AT_EPOCH": 487,
    "BSTAR": 0.0031735,
    "MEAN_MOTION_DOT": 0.00280673,
    "MEAN_MOTION_DDOT": 0
    },
    {
    "OBJECT_NAME": "COSMOGIRLSAT",
    "OBJECT_ID": "1998-067WT",
    "EPOCH": "2024-09-29T20:08:01.776480",
    "MEAN_MOTION": 15.57404193,
    "ECCENTRICITY": 0.0008193,
    "INCLINATION": 51.6353,
    "RA_OF_ASC_NODE": 156.044,
    "ARG_OF_PERICENTER": 60.2316,
    "MEAN_ANOMALY": 299.949,
    "EPHEMERIS_TYPE": 0,
    "CLASSIFICATION_TYPE": "U",
    "NORAD_CAT_ID": 60953,
    "ELEMENT_SET_NO": 999,
    "REV_AT_EPOCH": 489,
    "BSTAR": 0.0020829,
    "MEAN_MOTION_DOT": 0.00158435,
    "MEAN_MOTION_DDOT": 0
    },
    {
    "OBJECT_NAME": "SAKURA",
    "OBJECT_ID": "1998-067WU",
    "EPOCH": "2024-09-29T23:00:02.941632",
    "MEAN_MOTION": 15.58375719,
    "ECCENTRICITY": 0.0007426,
    "INCLINATION": 51.6357,
    "RA_OF_ASC_NODE": 155.3434,
    "ARG_OF_PERICENTER": 63.7345,
    "MEAN_ANOMALY": 296.4409,
    "EPHEMERIS_TYPE": 0,
    "CLASSIFICATION_TYPE": "U",
    "NORAD_CAT_ID": 60954,
    "ELEMENT_SET_NO": 999,
    "REV_AT_EPOCH": 491,
    "BSTAR": 0.0023178,
    "MEAN_MOTION_DOT": 0.00183451,
    "MEAN_MOTION_DDOT": 0
    },
    {
    "OBJECT_NAME": "1998-067WV",
    "OBJECT_ID": "1998-067WV",
    "EPOCH": "2024-09-29T22:47:51.123264",
    "MEAN_MOTION": 15.67041677,
    "ECCENTRICITY": 0.0001827,
    "INCLINATION": 51.6332,
    "RA_OF_ASC_NODE": 154.5344,
    "ARG_OF_PERICENTER": 139.1909,
    "MEAN_ANOMALY": 220.9224,
    "EPHEMERIS_TYPE": 0,
    "CLASSIFICATION_TYPE": "U",
    "NORAD_CAT_ID": 60955,
    "ELEMENT_SET_NO": 999,
    "REV_AT_EPOCH": 492,
    "BSTAR": 0.0040899,
    "MEAN_MOTION_DOT": 0.00470664,
    "MEAN_MOTION_DDOT": 0
    },
    {
    "OBJECT_NAME": "BINAR-2",
    "OBJECT_ID": "1998-067WW",
    "EPOCH": "2024-09-30T01:44:38.904864",
    "MEAN_MOTION": 15.59941524,
    "ECCENTRICITY": 0.0005325,
    "INCLINATION": 51.6307,
    "RA_OF_ASC_NODE": 154.597,
    "ARG_OF_PERICENTER": 75.3802,
    "MEAN_ANOMALY": 284.7781,
    "EPHEMERIS_TYPE": 0,
    "CLASSIFICATION_TYPE": "U",
    "NORAD_CAT_ID": 60956,
    "ELEMENT_SET_NO": 999,
    "REV_AT_EPOCH": 492,
    "BSTAR": 0.0025187,
    "MEAN_MOTION_DOT": 0.00212265,
    "MEAN_MOTION_DDOT": 0
    },
    {
    "OBJECT_NAME": "BINAR-3",
    "OBJECT_ID": "1998-067WX",
    "EPOCH": "2024-09-30T01:23:02.852160",
    "MEAN_MOTION": 15.62026476,
    "ECCENTRICITY": 0.0003849,
    "INCLINATION": 51.6321,
    "RA_OF_ASC_NODE": 154.5023,
    "ARG_OF_PERICENTER": 81.152,
    "MEAN_ANOMALY": 278.991,
    "EPHEMERIS_TYPE": 0,
    "CLASSIFICATION_TYPE": "U",
    "NORAD_CAT_ID": 60957,
    "ELEMENT_SET_NO": 999,
    "REV_AT_EPOCH": 691,
    "BSTAR": 0.003081,
    "MEAN_MOTION_DOT": 0.0028394,
    "MEAN_MOTION_DDOT": 0
    },
    {
    "OBJECT_NAME": "1998-067WY",
    "OBJECT_ID": "1998-067WY",
    "EPOCH": "2024-09-29T17:09:17.147520",
    "MEAN_MOTION": 15.56887671,
    "ECCENTRICITY": 0.0008616,
    "INCLINATION": 51.6364,
    "RA_OF_ASC_NODE": 156.7174,
    "ARG_OF_PERICENTER": 58.5181,
    "MEAN_ANOMALY": 301.6652,
    "EPHEMERIS_TYPE": 0,
    "CLASSIFICATION_TYPE": "U",
    "NORAD_CAT_ID": 60958,
    "ELEMENT_SET_NO": 999,
    "REV_AT_EPOCH": 486,
    "BSTAR": 0.001905,
    "MEAN_MOTION_DOT": 0.00141814,
    "MEAN_MOTION_DDOT": 0
    }
    ]
