BINAR-4                 
1 60952U 98067WS  24273.68306823  .00280673  00000+0  31735-2 0  9992
2 60952  51.6337 156.5017 0004302  76.5643 283.5829 15.60969428  4870
COSMOGIRLSAT            
1 60953U 98067WT  24273.83890945  .00158435  00000+0  20829-2 0  9995
2 60953  51.6353 156.0440 0008193  60.2316 299.9490 15.57404193  4899
SAKURA                  
1 60954U 98067WU  24273.95836738  .00183451  00000+0  23178-2 0  9995
2 60954  51.6357 155.3434 0007426  63.7345 296.4409 15.58375719  4914
1998-067WV              
1 60955U 98067WV  24273.94989726  .00470664  00000+0  40899-2 0  9995
2 60955  51.6332 154.5344 0001827 139.1909 220.9224 15.67041677  4923
BINAR-2                 
1 60956U 98067WW  24274.07267251  .00212265  00000+0  25187-2 0  9997
2 60956  51.6307 154.5970 0005325  75.3802 284.7781 15.59941524  4928
BINAR-3                 
1 60957U 98067WX  24274.05767190  .00283940  00000+0  30810-2 0  9990
2 60957  51.6321 154.5023 0003849  81.1520 278.9910 15.62026476  6919
1998-067WY              
1 60958U 98067WY  24273.71478180  .00141814  00000+0  19050-2 0  9997
2 60958  51.6364 156.7174 0008616  58.5181 301.6652 15.56887671  4860
YAOGAN-43 02A           
1 60945U 24156A   24274.11030440  .00122097  00000+0  49636-2 0  9994
2 60945  34.9980 169.2862 0009286 285.5409 218.8313 15.23119082  4137
YAOGAN-43 02B           
1 60946U 24156B   24274.22096472  .00042364  00000+0  17451-2 0  9992
2 60946  34.9951 168.6701 0003707 264.5143  95.5149 15.23089840  4107
YAOGAN-43 02C           
1 60947U 24156C   24273.82475456  .00012878  00000+0  52487-3 0  9997
2 60947  34.9983 171.1251 0003410 206.7122 153.3418 15.23650742  4048
YAOGAN-43 02D           
1 60948U 24156D   24274.12070969 -.00128682  00000+0 -53795-2 0  9997
2 60948  34.9962 169.3594 0002814 171.5964 335.2319 15.23339864  4089
YAOGAN-43 02E           
1 60949U 24156E   24274.22778447  .00054765  00000+0  22577-2 0  9997
2 60949  34.9960 168.7271 0008702 160.3866 199.7184 15.22972317  4103
YAOGAN-43 02F           
1 60950U 24156F   24273.10636021  .00027880  00000+0  11098-2 0  9990
2 60950  34.9933 175.6744 0002446 170.3301 189.7461 15.24322923  3932
CZ-4B R/B               
1 60951U 24156G   24274.06873920  .00077036  00000+0  11575-2 0  9996
2 60951  35.0018 163.4691 0087990 251.4709 107.6437 15.49220482  4189
